{"type": "FeatureCollection", "features": [ {"type": "Feature", "properties": {"norad_id": 33153, "name": "INTELSAT 25 (IS-25)", "group": "intelsat", "lat": 1.882932704981549, "lon": -157.29658224497518, "alt_km": 35773.30111896262, "timestamp": "2025-12-02T10:50:46.941063+00:00", "meta": {"OBJECT_NAME": "INTELSAT 25 (IS-25)", "OBJECT_ID": "2008-034A", "EPOCH": "2025-12-02T03:21:43.154784", "MEAN_MOTION": 1.00271777, "ECCENTRICITY": 0.0005269, "INCLINATION": 2.198, "RA_OF_ASC_NODE": 82.7686, "ARG_OF_PERICENTER": 175.7832, "MEAN_ANOMALY": 191.6351, "EPHEMERIS_TYPE": 0, "CLASSIFICATION_TYPE": "U", "NORAD_CAT_ID": 33153, "ELEMENT_SET_NO": 999, "REV_AT_EPOCH": 6372, "BSTAR": 0, "MEAN_MOTION_DOT": -2.03e-06, "MEAN_MOTION_DDOT": 0}, "tle": {"line1": "1 33153U 08034A   25336.14008281 -.00000203  00000+0  00000+0 0  9997", "line2": "2 33153   2.1980  82.7686 0005269 175.7832 191.6351  1.00271777 63725"}}, "geometry": {"type": "Point", "coordinates": [-157.29658224497518, 1.882932704981549]}}, {"type": "Feature", "properties": {"norad_id": 33376, "name": "GALAXY 19 (G-19)", "group": "intelsat", "lat": 0.011376666514599178, "lon": 137.17032985421213, "alt_km": 35794.92503611513, "timestamp": "2025-12-02T10:50:46.941074+00:00", "meta": {"OBJECT_NAME": "GALAXY 19 (G-19)", "OBJECT_ID": "2008-045A", "EPOCH": "2025-12-02T02:50:43.952064", "MEAN_MOTION": 1.00270184, "ECCENTRICITY": 0.0003434, "INCLINATION": 0.0189, "RA_OF_ASC_NODE": 350.1053, "ARG_OF_PERICENTER": 272.4368, "MEAN_ANOMALY": 114.3498, "EPHEMERIS_TYPE": 0, "CLASSIFICATION_TYPE": "U", "NORAD_CAT_ID": 33376, "ELEMENT_SET_NO": 999, "REV_AT_EPOCH": 6292, "BSTAR": 0, "MEAN_MOTION_DOT": 0, "MEAN_MOTION_DDOT": 0}, "tle": {"line1": "1 33376U 08045A   25336.11856426  .00000000  00000+0  00000+0 0  9999", "line2": "2 33376   0.0189 350.1053 0003434 272.4368 114.3498  1.00270184 62927"}}, "geometry": {"type": "Point", "coordinates": [137.17032985421213, 0.011376666514599178]}}, {"type": "Feature", "properties": {"norad_id": 35493, "name": "FM-5", "group": "intelsat", "lat": -0.027705543963169783, "lon": 148.0903711421192, "alt_km": 35780.68839491537, "timestamp": "2025-12-02T10:50:46.941086+00:00", "meta": {"OBJECT_NAME": "FM-5", "OBJECT_ID": "2009-034A", "EPOCH": "2025-12-02T03:49:56.186112", "MEAN_MOTION": 1.00271359, "ECCENTRICITY": 0.0001362, "INCLINATION": 0.0257, "RA_OF_ASC_NODE": 281.1373, "ARG_OF_PERICENTER": 241.1286, "MEAN_ANOMALY": 240.3577, "EPHEMERIS_TYPE": 0, "CLASSIFICATION_TYPE": "U", "NORAD_CAT_ID": 35493, "ELEMENT_SET_NO": 999, "REV_AT_EPOCH": 4466, "BSTAR": 0, "MEAN_MOTION_DOT": -1.79e-06, "MEAN_MOTION_DDOT": 0}, "tle": {"line1": "1 35493U 09034A   25336.15967808 -.00000179  00000+0  00000+0 0  9999", "line2": "2 35493   0.0257 281.1373 0001362 241.1286 240.3577  1.00271359 44667"}}, "geometry": {"type": "Point", "coordinates": [148.0903711421192, -0.027705543963169783]}}, {"type": "Feature", "properties": {"norad_id": 36097, "name": "INTELSAT 14 (IS-14)", "group": "intelsat", "lat": -0.038919126573698046, "lon": -170.79629311713057, "alt_km": 35780.299174668435, "timestamp": "2025-12-02T10:50:46.941098+00:00", "meta": {"OBJECT_NAME": "INTELSAT 14 (IS-14)", "OBJECT_ID": "2009-064A", "EPOCH": "2025-12-02T03:17:51.027360", "MEAN_MOTION": 1.00273179, "ECCENTRICITY": 0.0002646, "INCLINATION": 0.0193, "RA_OF_ASC_NODE": 297.7637, "ARG_OF_PERICENTER": 312.5011, "MEAN_ANOMALY": 185.4495, "EPHEMERIS_TYPE": 0, "CLASSIFICATION_TYPE": "U", "NORAD_CAT_ID": 36097, "ELEMENT_SET_NO": 999, "REV_AT_EPOCH": 5862, "BSTAR": 0, "MEAN_MOTION_DOT": -2.52e-06, "MEAN_MOTION_DDOT": 0}, "tle": {"line1": "1 36097U 09064A   25336.13739615 -.00000252  00000+0  00000+0 0  9996", "line2": "2 36097   0.0193 297.7637 0002646 312.5011 185.4495  1.00273179 58629"}}, "geometry": {"type": "Point", "coordinates": [-170.79629311713057, -0.038919126573698046]}}, {"type": "Feature", "properties": {"norad_id": 36106, "name": "INTELSAT 15 (IS-15)", "group": "intelsat", "lat": 0.007490564717891606, "lon": -40.58552120901299, "alt_km": 35782.69544383497, "timestamp": "2025-12-02T10:50:46.941110+00:00", "meta": {"OBJECT_NAME": "INTELSAT 15 (IS-15)", "OBJECT_ID": "2009-067A", "EPOCH": "2025-12-02T02:12:14.613120", "MEAN_MOTION": 1.00270671, "ECCENTRICITY": 0.0002371, "INCLINATION": 0.0103, "RA_OF_ASC_NODE": 303.6391, "ARG_OF_PERICENTER": 307.5381, "MEAN_ANOMALY": 298.2522, "EPHEMERIS_TYPE": 0, "CLASSIFICATION_TYPE": "U", "NORAD_CAT_ID": 36106, "ELEMENT_SET_NO": 999, "REV_AT_EPOCH": 3925, "BSTAR": 0, "MEAN_MOTION_DOT": -1.64e-06, "MEAN_MOTION_DDOT": 0}, "tle": {"line1": "1 36106U 09067A   25336.09183580 -.00000164  00000+0  00000+0 0  9991", "line2": "2 36106   0.0103 303.6391 0002371 307.5381 298.2522  1.00270671 39250"}}, "geometry": {"type": "Point", "coordinates": [-40.58552120901299, 0.007490564717891606]}}, {"type": "Feature", "properties": {"norad_id": 36131, "name": "DIRECTV 12", "group": "intelsat", "lat": 0.0007818947043125361, "lon": 131.5074402248866, "alt_km": 35787.65643902046, "timestamp": "2025-12-02T10:50:46.941122+00:00", "meta": {"OBJECT_NAME": "DIRECTV 12", "OBJECT_ID": "2009-075A", "EPOCH": "2025-12-02T03:01:24.835296", "MEAN_MOTION": 1.00267403, "ECCENTRICITY": 9e-06, "INCLINATION": 0.0096, "RA_OF_ASC_NODE": 80.2148, "ARG_OF_PERICENTER": 256.9661, "MEAN_ANOMALY": 36.6962, "EPHEMERIS_TYPE": 0, "CLASSIFICATION_TYPE": "U", "NORAD_CAT_ID": 36131, "ELEMENT_SET_NO": 999, "REV_AT_EPOCH": 4457, "BSTAR": 0, "MEAN_MOTION_DOT": -8.2e-07, "MEAN_MOTION_DDOT": 0}, "tle": {"line1": "1 36131U 09075A   25336.12598189 -.00000082  00000+0  00000+0 0  9996", "line2": "2 36131   0.0096  80.2148 0000090 256.9661  36.6962  1.00267403 44573"}}, "geometry": {"type": "Point", "coordinates": [131.5074402248866, 0.0007818947043125361]}}, {"type": "Feature", "properties": {"norad_id": 36397, "name": "INTELSAT 16 (IS-16)", "group": "intelsat", "lat": -0.0199043724181803, "lon": 158.00045403590983, "alt_km": 35787.9863043305, "timestamp": "2025-12-02T10:50:46.941134+00:00", "meta": {"OBJECT_NAME": "INTELSAT 16 (IS-16)", "OBJECT_ID": "2010-006A", "EPOCH": "2025-12-02T04:54:21.818016", "MEAN_MOTION": 1.00269286, "ECCENTRICITY": 0.0002307, "INCLINATION": 0.0149, "RA_OF_ASC_NODE": 304.6687, "ARG_OF_PERICENTER": 310.3352, "MEAN_ANOMALY": 173.705, "EPHEMERIS_TYPE": 0, "CLASSIFICATION_TYPE": "U", "NORAD_CAT_ID": 36397, "ELEMENT_SET_NO": 999, "REV_AT_EPOCH": 5767, "BSTAR": 0, "MEAN_MOTION_DOT": -2.24e-06, "MEAN_MOTION_DDOT": 0}, "tle": {"line1": "1 36397U 10006A   25336.20441919 -.00000224  00000+0  00000+0 0  9991", "line2": "2 36397   0.0149 304.6687 0002307 310.3352 173.7050  1.00269286 57679"}}, "geometry": {"type": "Point", "coordinates": [158.00045403590983, -0.0199043724181803]}}, {"type": "Feature", "properties": {"norad_id": 37185, "name": "XM-5", "group": "intelsat", "lat": -0.02630634119660694, "lon": 119.04150987042208, "alt_km": 35778.83226564116, "timestamp": "2025-12-02T10:50:46.941146+00:00", "meta": {"OBJECT_NAME": "XM-5", "OBJECT_ID": "2010-053A", "EPOCH": "2025-12-02T02:57:47.680992", "MEAN_MOTION": 1.00273992, "ECCENTRICITY": 0.000176, "INCLINATION": 0.0657, "RA_OF_ASC_NODE": 272.5508, "ARG_OF_PERICENTER": 232.7721, "MEAN_ANOMALY": 215.1827, "EPHEMERIS_TYPE": 0, "CLASSIFICATION_TYPE": "U", "NORAD_CAT_ID": 37185, "ELEMENT_SET_NO": 999, "REV_AT_EPOCH": 5550, "BSTAR": 0, "MEAN_MOTION_DOT": -3e-08, "MEAN_MOTION_DDOT": 0}, "tle": {"line1": "1 37185U 10053A   25336.12346853 -.00000003  00000+0  00000+0 0  9996", "line2": "2 37185   0.0657 272.5508 0001760 232.7721 215.1827  1.00273992 55505"}}, "geometry": {"type": "Point", "coordinates": [119.04150987042208, -0.02630634119660694]}}, {"type": "Feature", "properties": {"norad_id": 37238, "name": "INTELSAT 17 (IS-17)", "group": "intelsat", "lat": 0.006927373250796038, "lon": -59.75338789409385, "alt_km": 35776.72319816474, "timestamp": "2025-12-02T10:50:46.941158+00:00", "meta": {"OBJECT_NAME": "INTELSAT 17 (IS-17)", "OBJECT_ID": "2010-065B", "EPOCH": "2025-12-02T03:49:10.527168", "MEAN_MOTION": 1.00272254, "ECCENTRICITY": 0.0002683, "INCLINATION": 0.0191, "RA_OF_ASC_NODE": 277.0295, "ARG_OF_PERICENTER": 347.6079, "MEAN_ANOMALY": 289.9288, "EPHEMERIS_TYPE": 0, "CLASSIFICATION_TYPE": "U", "NORAD_CAT_ID": 37238, "ELEMENT_SET_NO": 999, "REV_AT_EPOCH": 5127, "BSTAR": 0, "MEAN_MOTION_DOT": 1.9e-07, "MEAN_MOTION_DDOT": 0}, "tle": {"line1": "1 37238U 10065B   25336.15914962  .00000019  00000+0  00000+0 0  9999", "line2": "2 37238   0.0191 277.0295 0002683 347.6079 289.9288  1.00272254 51277"}}, "geometry": {"type": "Point", "coordinates": [-59.75338789409385, 0.006927373250796038]}}, {"type": "Feature", "properties": {"norad_id": 37392, "name": "INTELSAT 28 (IS-28)", "group": "intelsat", "lat": 1.1282497561855076, "lon": -157.51735728408195, "alt_km": 35776.44673136583, "timestamp": "2025-12-02T10:50:46.941169+00:00", "meta": {"OBJECT_NAME": "INTELSAT 28 (IS-28)", "OBJECT_ID": "2011-016A", "EPOCH": "2025-12-02T03:21:35.668224", "MEAN_MOTION": 1.00269802, "ECCENTRICITY": 0.0004136, "INCLINATION": 1.2948, "RA_OF_ASC_NODE": 85.184, "ARG_OF_PERICENTER": 172.321, "MEAN_ANOMALY": 192.4347, "EPHEMERIS_TYPE": 0, "CLASSIFICATION_TYPE": "U", "NORAD_CAT_ID": 37392, "ELEMENT_SET_NO": 999, "REV_AT_EPOCH": 5131, "BSTAR": 0, "MEAN_MOTION_DOT": -2.04e-06, "MEAN_MOTION_DDOT": 0}, "tle": {"line1": "1 37392U 11016A   25336.13999616 -.00000204  00000+0  00000+0 0  9991", "line2": "2 37392   1.2948  85.1840 0004136 172.3210 192.4347  1.00269802 51314"}}, "geometry": {"type": "Point", "coordinates": [-157.51735728408195, 1.1282497561855076]}}]}